*******************************************************************************
 Revised: Mar 27, 2009             Nereid / (Neptune)                       802

            http://ssd.jpl.nasa.gov/sat_props.html  (physical properties)
            http://ssd.jpl.nasa.gov/sat_elem.html   (mean elements)

 SATELLITE PHYSICAL PROPERTIES:
  Radius (km)             =  170   +- 2.5   Density (g cm^-3)   =              
  Mass (10^20 kg )        =                 Geometric Albedo    =  0.2  
                                            V(1,0)              = +4.0 

 SATELLITE ORBITAL DATA:
  Semi-major axis, a (km) = 5513.4(10^3)    Orbital period      = 360.13619 d
  Eccentricity, e         = 0.7512          Rotational period   = 
  Inclination, i  (deg)   = 7.23            Local invar ref. pln= Sun   
  
 Fit to all reported measurements through 2008, as described in AJ (2009).
*******************************************************************************
 
 
*******************************************************************************
Ephemeris / WWW_USER Thu Jun 18 11:41:05 2020 Pasadena, USA      / Horizons
*******************************************************************************
Target body name: Nereid (802)                    {source: nep081xl}
Center body name: Solar System Barycenter (0)     {source: DE431mx}
Center-site name: BODY CENTER
*******************************************************************************
Start time      : A.D. 2000-Jun-05 00:00:00.0000 TDB
Stop  time      : A.D. 2040-May-26 00:00:00.0000 TDB
Step-size       : 14400 minutes
*******************************************************************************
Center geodetic : 0.00000000,0.00000000,0.0000000 {E-lon(deg),Lat(deg),Alt(km)}
Center cylindric: 0.00000000,0.00000000,0.0000000 {E-lon(deg),Dxy(km),Dz(km)}
Center radii    : (undefined)                                                  
Output units    : AU-D
Output type     : GEOMETRIC cartesian states
Output format   : 3 (position, velocity, LT, range, range-rate)
Reference frame : Ecliptic of J2000.0
*******************************************************************************
JDTDB
   X     Y     Z
   VX    VY    VZ
   LT    RG    RR
*******************************************************************************
$$SOE
2464950.500000000 = A.D. 2036-Sep-14 00:00:00.0000 TDB 
 X = 2.706757463717964E+01 Y = 1.250610338069780E+01 Z =-8.789302823996213E-01
 VX=-1.543011103734704E-03 VY= 2.378166232576912E-03 VZ=-7.339349194218463E-05
 LT= 1.722836960422819E-01 RG= 2.982999726700140E+01 RR=-4.009208443969705E-04
2464960.500000000 = A.D. 2036-Sep-24 00:00:00.0000 TDB 
 X = 2.705228315981068E+01 Y = 1.252947482185497E+01 Z =-8.796816037335931E-01
 VX=-1.512876179902863E-03 VY= 2.293781785864572E-03 VZ=-7.688634395267321E-05
 LT= 1.722603509716467E-01 RG= 2.982595519332150E+01 RR=-4.063319377615586E-04
2464970.500000000 = A.D. 2036-Oct-04 00:00:00.0000 TDB 
 X = 2.703738082394547E+01 Y = 1.255192284499079E+01 Z =-8.804680397848318E-01
 VX=-1.463355054310628E-03 VY= 2.192452997871277E-03 VZ=-8.037864915366269E-05
 LT= 1.722369527180588E-01 RG= 2.982190391129880E+01 RR=-4.015510283129483E-04
2464980.500000000 = A.D. 2036-Oct-14 00:00:00.0000 TDB 
 X = 2.702313544202678E+01 Y = 1.257324193124295E+01 Z =-8.812876848557395E-01
 VX=-1.377258083588296E-03 VY= 2.066424828695070E-03 VZ=-8.338675969140306E-05
 LT= 1.722143867956936E-01 RG= 2.981799674295992E+01 RR=-3.743606520368230E-04
2464990.500000000 = A.D. 2036-Oct-24 00:00:00.0000 TDB 
 X = 2.701009744214519E+01 Y = 1.259313517862051E+01 Z =-8.821282801770628E-01
 VX=-1.209982464700113E-03 VY= 1.905887190576484E-03 VZ=-8.397009938078619E-05
 LT= 1.721947876932501E-01 RG= 2.981460326356660E+01 RR=-2.886698432063416E-04
2465000.500000000 = A.D. 2036-Nov-03 00:00:00.0000 TDB 
 X = 2.699965682835516E+01 Y = 1.261128959491987E+01 Z =-8.829298278679503E-01
 VX=-8.152755910642408E-04 VY= 1.732779024561163E-03 VZ=-7.216711848863571E-05
 LT= 1.721846262408172E-01 RG= 2.981284386261765E+01 RR=-3.215546811374201E-06
2465010.500000000 = A.D. 2036-Nov-13 00:00:00.0000 TDB 
 X = 2.699589400407617E+01 Y = 1.262934942346354E+01 Z =-8.833457747208806E-01
 VX= 1.506674552387758E-04 VY= 2.127547051865390E-03 VZ= 1.060440176096475E-05
 LT= 1.722091696063842E-01 RG= 2.981709341463335E+01 RR= 1.037242966669926E-03
2465020.500000000 = A.D. 2036-Nov-23 00:00:00.0000 TDB 
 X = 2.699788527127843E+01 Y = 1.265824583819431E+01 Z =-8.827030234551745E-01
 VX=-7.250943772220879E-05 VY= 3.460514019908555E-03 VZ= 8.662329930322061E-05
 LT= 1.722902230971365E-01 RG= 2.983112739151662E+01 RR= 1.400214363788790E-03
2465030.500000000 = A.D. 2036-Dec-03 00:00:00.0000 TDB 
 X = 2.699393055545103E+01 Y = 1.269424626896900E+01 Z =-8.819299204911413E-01
 VX=-6.510877619549723E-04 VY= 3.650601227028007E-03 VZ= 6.599696632744132E-05
 LT= 1.723577607455621E-01 RG= 2.984282117284496E+01 RR= 9.619736789775755E-04
2465040.500000000 = A.D. 2036-Dec-13 00:00:00.0000 TDB 
 X = 2.698582252619087E+01 Y = 1.273058532926431E+01 Z =-8.813720520267530E-01
 VX=-9.405984061608312E-04 VY= 3.607052877535862E-03 VZ= 4.664049676904682E-05
 LT= 1.724047109704628E-01 RG= 2.985095035228935E+01 RR= 6.866101385494986E-04
2465050.500000000 = A.D. 2036-Dec-23 00:00:00.0000 TDB 
 X = 2.697551325391108E+01 Y = 1.276631483073501E+01 Z =-8.809789899702080E-01
 VX=-1.108232654685683E-03 VY= 3.538283200085971E-03 VZ= 3.269140811701644E-05
 LT= 1.724389529540506E-01 RG= 2.985687916795970E+01 RR= 5.106659707544254E-04
2465060.500000000 = A.D. 2037-Jan-02 00:00:00.0000 TDB 
 X = 2.696384398199860E+01 Y = 1.280135916175801E+01 Z =-8.807068627726744E-01
 VX=-1.218925895392844E-03 VY= 3.471442114576838E-03 VZ= 2.218035796962959E-05
 LT= 1.724646872362440E-01 RG= 2.986133492079722E+01 RR= 3.868787274955882E-04
2465070.500000000 = A.D. 2037-Jan-12 00:00:00.0000 TDB 
 X = 2.695123661737303E+01 Y = 1.283576286491146E+01 Z =-8.805281847420441E-01
 VX=-1.298647521151821E-03 VY= 3.410263082233821E-03 VZ= 1.384605506798038E-05
 LT= 1.724842177818691E-01 RG= 2.986471652994540E+01 RR= 2.933555305930390E-04
2465080.500000000 = A.D. 2037-Jan-22 00:00:00.0000 TDB 
 X = 2.693793311455688E+01 Y = 1.286958254823725E+01 Z =-8.804251276260218E-01
 VX=-1.359569718971818E-03 VY= 3.354506670232246E-03 VZ= 6.965118226509654E-06
 LT= 1.724989389611711E-01 RG= 2.986726542312818E+01 RR= 2.190013042425377E-04
2465090.500000000 = A.D. 2037-Feb-01 00:00:00.0000 TDB 
 X = 2.692408610849758E+01 Y = 1.290286808759156E+01 Z =-8.803855022874633E-01
 VX=-1.408141803763863E-03 VY= 3.303279092835957E-03 VZ= 1.103256821629025E-06
 LT= 1.725097629030138E-01 RG= 2.986913953056262E+01 RR= 1.576165901170298E-04
2465100.500000000 = A.D. 2037-Feb-11 00:00:00.0000 TDB 
 X = 2.690979882467370E+01 Y = 1.293566028003082E+01 Z =-8.804005949504856E-01
 VX=-1.448105142898051E-03 VY= 3.255701415535992E-03 VZ=-4.015406586015099E-06
 LT= 1.725173220370963E-01 RG= 2.987044835405666E+01 RR= 1.054542115082319E-04
2465110.500000000 = A.D. 2037-Feb-21 00:00:00.0000 TDB 
 X = 2.689514486955609E+01 Y = 1.296799179369482E+01 Z =-8.804639537103183E-01
 VX=-1.481783609547093E-03 VY= 3.211031673120701E-03 VZ=-8.575259202358335E-06
 LT= 1.725220746295482E-01 RG= 2.987127123993100E+01 RR= 6.010449754284189E-05
2465120.500000000 = A.D. 2037-Mar-03 00:00:00.0000 TDB 
 X = 2.688017897949451E+01 Y = 1.299988857418206E+01 Z =-8.805706702769242E-01
 VX=-1.510698360079196E-03 VY= 3.168663801082159E-03 VZ=-1.270500122867232E-05
 LT= 1.725243642408396E-01 RG= 2.987166767383702E+01 RR= 1.993935183351342E-05
2465130.500000000 = A.D. 2037-Mar-13 00:00:00.0000 TDB 
 X = 2.686494329103576E+01 Y = 1.303137108026373E+01 Z =-8.807169333497917E-01
 VX=-1.535886527395075E-03 VY= 3.128101866046929E-03 VZ=-1.649786536104584E-05
 LT= 1.725244553990666E-01 RG= 2.987168345739474E+01 RR=-1.618651047617190E-05
2465140.500000000 = A.D. 2037-Mar-23 00:00:00.0000 TDB 
 X = 2.684947121657694E+01 Y = 1.306245525065128E+01 Z =-8.808997390783542E-01
 VX=-1.558077747444499E-03 VY= 3.088933719348007E-03 VZ=-2.002365362704647E-05
 LT= 1.725225561251461E-01 RG= 2.987135460830944E+01 RR=-4.910611989204765E-05
2465150.500000000 = A.D. 2037-Apr-02 00:00:00.0000 TDB 
 X = 2.683378995931895E+01 Y = 1.309315322800617E+01 Z =-8.811166967473758E-01
 VX=-1.577797373961291E-03 VY= 3.050809041474816E-03 VZ=-2.333617397135193E-05
 LT= 1.725188327683364E-01 RG= 2.987070992906231E+01 RR=-7.944274491423299E-05
2465160.500000000 = A.D. 2037-Apr-12 00:00:00.0000 TDB 
 X = 2.681792221666547E+01 Y = 1.312347388646316E+01 Z =-8.813658946864622E-01
 VX=-1.595429390467055E-03 VY= 3.013421866849255E-03 VZ=-2.647807215338547E-05
 LT= 1.725134201287313E-01 RG= 2.986977275956609E+01 RR=-1.076741116636439E-04
2465170.500000000 = A.D. 2037-Apr-22 00:00:00.0000 TDB 
 X = 2.680188738121191E+01 Y = 1.315342320332200E+01 Z =-8.816458057542964E-01
 VX=-1.611255984498161E-03 VY= 2.976496712956487E-03 VZ=-2.948405095853645E-05
 LT= 1.725064285770398E-01 RG= 2.986856220991663E+01 RR=-1.341740520343865E-04
2465180.500000000 = A.D. 2037-May-02 00:00:00.0000 TDB 
 X = 2.678570242256271E+01 Y = 1.318300450493144E+01 Z =-8.819552197202176E-01
 VX=-1.625482918410498E-03 VY= 2.939777124758105E-03 VZ=-3.238309969406119E-05
 LT= 1.724979491988289E-01 RG= 2.986709405109101E+01 RR=-1.592403403685752E-04
2465190.500000000 = A.D. 2037-May-12 00:00:00.0000 TDB 
 X = 2.676938256437198E+01 Y = 1.321221860671072E+01 Z =-8.822931945937071E-01
 VX=-1.638255738068438E-03 VY= 2.903015804889704E-03 VZ=-3.520010457260467E-05
 LT= 1.724880576063064E-01 RG= 2.986538137493714E+01 RR=-1.831136283284997E-04
